NORAD_CAT_ID,OBJECT_NAME,OBJECT_TYPE,EPOCH,MEAN_MOTION,ECCENTRICITY,INCLINATION,RA_OF_ASC_NODE,ARG_OF_PERICENTER,MEAN_ANOMALY,BSTAR,MEAN_MOTION_DOT,MEAN_MOTION_DDOT,TLE_LINE0,TLE_LINE1,TLE_LINE2,SEMIMAJOR_AXIS,PERIOD,APOGEE,PERIGEE,DECAYED
52575.0,STARLINK-3920,PAYLOAD,2022-12-15 19:36:36,15.08858958,0.0002586,53.2186,15.7673,37.9999,322.1176,0.00054507,8.402e-05,0.0,0 STARLINK-3920,1 52575U 22051AR  22349.81708413  .00008402  00000-0  54507-3 0  9994,2 52575  53.2186  15.7673 0002586  37.9999 322.1176 15.08858958 33462,6917.821999999999,95.436,541.476,537.898,0.0
52575.0,STARLINK-3920,PAYLOAD,2022-12-16 00:22:45,15.08865173,0.0002558,53.2187,14.875,36.792,323.3247,0.00069076,0.0001073,0.0,0 STARLINK-3920,1 52575U 22051AR  22350.01580069  .00010730  00000-0  69076-3 0  9997,2 52575  53.2187  14.8750 0002558  36.7920 323.3247 15.08865173 33569,6917.803000000001,95.436,541.438,537.899,0.0
52575.0,STARLINK-3920,PAYLOAD,2022-12-16 13:05:50,15.08852982,0.0002795,53.2189,12.4968,30.2867,329.8286,0.00076166,0.00011859,0.0,0 STARLINK-3920,1 52575U 22051AR  22350.54572017  .00011859  00000-0  76166-3 0  9990,2 52575  53.2189  12.4968 0002795  30.2867 329.8286 15.08852982 33645,6917.840999999999,95.437,541.639,537.7719999999998,0.0
52575.0,STARLINK-3920,PAYLOAD,2022-12-16 16:16:36,15.08833377,0.0002874,53.219,11.9019,32.6562,327.4608,-3.6047e-05,-8.62e-06,0.0,0 STARLINK-3920,1 52575U 22051AR  22350.67820349 -.00000862  00000-0 -36047-4 0  9997,2 52575  53.2190  11.9019 0002874  32.6562 327.4608 15.08833377 33665,6917.901,95.438,541.754,537.7769999999998,0.0
52575.0,STARLINK-3920,PAYLOAD,2022-12-17 09:45:51,15.08829952,0.0002491,53.2191,8.631,36.0433,324.0727,1.4615e-05,-5.6e-07,0.0,0 STARLINK-3920,1 52575U 22051AR  22351.40685070 -.00000056  00000-0  14615-4 0  9990,2 52575  53.2191   8.6310 0002491  36.0433 324.0727 15.08829952 33707,6917.911,95.438,541.499,538.053,0.0
52575.0,STARLINK-3920,PAYLOAD,2022-12-17 12:56:38,15.08833588,0.0002699,53.2191,8.0367,31.6595,328.4559,0.00020628,2.996e-05,0.0,0 STARLINK-3920,1 52575U 22051AR  22351.53933156  .00002996  00000-0  20628-3 0  9999,2 52575  53.2191   8.0367 0002699  31.6595 328.4559 15.08833588 33726,6917.9,95.438,541.632,537.898,0.0
52575.0,STARLINK-3920,PAYLOAD,2022-12-18 00:04:20,15.0884611,0.0002618,53.2192,5.9548,33.0685,327.047,0.00072434,0.00011261,0.0,0 STARLINK-3920,1 52575U 22051AR  22352.00301190  .00011261  00000-0  72434-3 0  9996,2 52575  53.2192   5.9548 0002618  33.0685 327.0470 15.08846110 33868,6917.861999999999,95.437,541.538,537.9159999999998,0.0
52575.0,STARLINK-3920,PAYLOAD,2022-12-18 08:01:15,15.08853212,0.0002645,53.2192,4.4681,32.6768,327.4387,0.00088594,0.00013845,0.0,0 STARLINK-3920,1 52575U 22051AR  22352.33421144  .00013845  00000-0  88594-3 0  9998,2 52575  53.2192   4.4681 0002645  32.6768 327.4387 15.08853212 33847,6917.84,95.437,541.535,537.875,0.0
52575.0,STARLINK-3920,PAYLOAD,2022-12-18 17:33:34,15.08847804,0.0002581,53.2191,2.6843,30.6047,329.5095,0.00040489,6.163e-05,0.0,0 STARLINK-3920,1 52575U 22051AR  22352.73165110  .00006163  00000-0  40489-3 0  9996,2 52575  53.2191   2.6843 0002581  30.6047 329.5095 15.08847804 33909,6917.857,95.437,541.507,537.936,0.0
52575.0,STARLINK-3920,PAYLOAD,2022-12-19 04:41:16,15.08844597,0.0002628,53.2192,0.6031,32.4845,327.6309,0.00018199,2.61e-05,0.0,0 STARLINK-3920,1 52575U 22051AR  22353.19533124  .00002610  00000-0  18199-3 0  9997,2 52575  53.2192   0.6031 0002628  32.4845 327.6309 15.08844597 34044,6917.866,95.437,541.549,537.913,0.0
52575.0,STARLINK-3920,PAYLOAD,2022-12-19 07:52:02,15.08847527,0.0002618,53.2193,0.0087,32.7591,327.3563,0.0002549,3.772e-05,0.0,0 STARLINK-3920,1 52575U 22051AR  22353.32781026  .00003772  00000-0  25490-3 0  9990,2 52575  53.2193   0.0087 0002618  32.7591 327.3563 15.08847527 33998,6917.857,95.437,541.533,537.911,0.0
52575.0,STARLINK-3920,PAYLOAD,2022-12-20 07:42:48,15.08861784,0.0002652,53.2185,355.5472,29.8761,330.2382,0.00040434,6.157e-05,0.0,0 STARLINK-3920,1 52575U 22051AR  22354.32139828  .00006157  00000-0  40434-3 0  9993,2 52575  53.2185 355.5472 0002652  29.8761 330.2382 15.08861784 34140,6917.814,95.436,541.513,537.844,0.0
52575.0,STARLINK-3920,PAYLOAD,2022-12-20 23:36:40,15.088440300000002,0.0002741,53.2184,352.5739,31.0415,329.0738,-3.491e-06,-3.44e-06,0.0,0 STARLINK-3920,1 52575U 22051AR  22354.98380025 -.00000344  00000-0 -34910-5 0  9990,2 52575  53.2184 352.5739 0002741  31.0415 329.0738 15.08844030 34317,6917.868,95.437,541.629,537.837,0.0
52575.0,STARLINK-3920,PAYLOAD,2022-12-21 07:33:36,15.08831564,0.0002628,53.2184,351.086,29.4351,330.6788,-0.00012059,-2.207e-05,0.0,0 STARLINK-3920,1 52575U 22051AR  22355.31500856 -.00002207  00000-0 -12059-3 0  9992,2 52575  53.2184 351.0860 0002628  29.4351 330.6788 15.08831564 34366,6917.906,95.438,541.589,537.953,0.0
52575.0,STARLINK-3920,PAYLOAD,2022-12-21 17:05:55,15.08838273,0.0002815,53.2199,349.3018,30.5174,329.5981,-0.00010496,-1.959e-05,0.0,0 STARLINK-3920,1 52575U 22051AR  22355.71244627 -.00001959  00000-0 -10496-3 0  9993,2 52575  53.2199 349.3018 0002815  30.5174 329.5981 15.08838273 34424,6917.886,95.438,541.698,537.803,0.0
52575.0,STARLINK-3920,PAYLOAD,2022-12-22 07:24:23,15.0883457,0.000266,53.2195,346.6253,29.9658,330.1486,-7.094e-05,-1.417e-05,0.0,0 STARLINK-3920,1 52575U 22051AR  22356.30861037 -.00001417  00000-0 -70940-4 0  9999,2 52575  53.2195 346.6253 0002660  29.9658 330.1486 15.08834570 34444,6917.897,95.438,541.602,537.922,0.0
52575.0,STARLINK-3920,PAYLOAD,2022-12-22 16:56:42,15.08841218,0.0002709,53.2192,344.842,29.4624,330.652,0.00013523,1.865e-05,0.0,0 STARLINK-3920,1 52575U 22051AR  22356.70604892  .00001865  00000-0  13523-3 0  9995,2 52575  53.2192 344.8420 0002709  29.4624 330.6520 15.08841218 34507,6917.877,95.437,541.616,537.868,0.0
52575.0,STARLINK-3920,PAYLOAD,2022-12-22 21:42:52,15.08841787,0.0002482,53.2192,343.9499,28.1938,331.9188,0.00021156,3.08e-05,0.0,0 STARLINK-3920,1 52575U 22051AR  22356.90476915  .00003080  00000-0  21156-3 0  9992,2 52575  53.2192 343.9499 0002482  28.1938 331.9188 15.08841787 34601,6917.875,95.437,541.457,538.023,0.0
52575.0,STARLINK-3920,PAYLOAD,2022-12-23 10:25:57,15.08840064,0.0002522,53.2189,341.5714,29.5317,330.5817,0.00032005,4.809e-05,0.0,0 STARLINK-3920,1 52575U 22051AR  22357.43469437  .00004809  00000-0  32005-3 0  9997,2 52575  53.2189 341.5714 0002522  29.5317 330.5817 15.08840064 34614,6917.88,95.438,541.49,538.001,0.0
52575.0,STARLINK-3920,PAYLOAD,2022-12-24 10:16:44,15.08850577,0.0002642,53.2192,337.1116,29.5541,330.56,0.0003323,5.006e-05,0.0,0 STARLINK-3920,1 52575U 22051AR  22358.42829138  .00005006  00000-0  33230-3 0  9996,2 52575  53.2192 337.1116 0002642  29.5541 330.5600 15.08850577 34763,6917.848000000001,95.437,541.5409999999998,537.885,0.0
52575.0,STARLINK-3920,PAYLOAD,2022-12-25 06:56:45,15.08843115,0.0002542,53.2192,333.2459,26.4601,333.6521,9.0406e-05,1.151e-05,0.0,0 STARLINK-3920,1 52575U 22051AR  22359.28941082  .00001151  00000-0  90406-4 0  9990,2 52575  53.2192 333.2459 0002542  26.4601 333.6521 15.08843115 34960,6917.871,95.437,541.494,537.977,0.0
52575.0,STARLINK-3920,PAYLOAD,2022-12-25 08:32:08,15.088425099999998,0.0002563,53.2191,332.9487,26.3352,333.777,0.00011688,1.572e-05,0.0,0 STARLINK-3920,1 52575U 22051AR  22359.35565176  .00001572  00000-0  11688-3 0  9995,2 52575  53.2191 332.9487 0002563  26.3352 333.7770 15.08842510 34900,6917.873000000001,95.437,541.511,537.965,0.0
52575.0,STARLINK-3920,PAYLOAD,2022-12-25 14:53:40,15.0884337,0.0002563999999999,53.2192,331.7595,26.6412,333.4711,7.0625e-05,8.36e-06,0.0,0 STARLINK-3920,1 52575U 22051AR  22359.62061043  .00000836  00000-0  70625-4 0  9998,2 52575  53.2192 331.7595 0002564  26.6412 333.4711 15.08843370 34940,6917.87,95.437,541.509,537.961,0.0
52575.0,STARLINK-3920,PAYLOAD,2022-12-25 22:50:36,15.08834877,0.0002569,53.2192,330.2726,27.927,332.186,-2.1413000000000007e-05,-6.29e-06,0.0,0 STARLINK-3920,1 52575U 22051AR  22359.95181532 -.00000629  00000-0 -21413-4 0  9993,2 52575  53.2192 330.2726 0002569  27.9270 332.1860 15.08834877 35068,6917.896,95.438,541.538,537.984,0.0
52575.0,STARLINK-3920,PAYLOAD,2022-12-26 08:22:55,15.0884013,0.0002582,53.2197,328.4888,27.8928,332.2202,5.0222e-05,5.11e-06,0.0,0 STARLINK-3920,1 52575U 22051AR  22360.34925629  .00000511  00000-0  50222-4 0  9999,2 52575  53.2197 328.4888 0002582  27.8928 332.2202 15.08840130 35054,6917.88,95.438,541.531,537.9590000000002,0.0
52575.0,STARLINK-3920,PAYLOAD,2022-12-26 14:44:28,15.08842828,0.0002613,53.2197,327.2993,27.4731,332.6399,1.7967e-05,-2e-08,0.0,0 STARLINK-3920,1 52575U 22051AR  22360.61421463 -.00000002  00000-0  17967-4 0  9991,2 52575  53.2197 327.2993 0002613  27.4731 332.6399 15.08842828 35092,6917.871999999999,95.437,541.544,537.929,0.0
52575.0,STARLINK-3920,PAYLOAD,2022-12-27 05:02:55,15.08852897,0.0002622,53.2197,324.6229,24.7224,335.3893,-9.8447e-06,-4.45e-06,0.0,0 STARLINK-3920,1 52575U 22051AR  22361.21036796 -.00000445  00000-0 -98447-5 0  9994,2 52575  53.2197 324.6229 0002622  24.7224 335.3893 15.08852897 35256,6917.840999999999,95.437,541.52,537.8919999999998,0.0
52575.0,STARLINK-3920,PAYLOAD,2022-12-27 06:38:18,15.08851712,0.0002693,53.2197,324.3255,25.5503,334.5622,2.3529e-05,8.6e-07,0.0,0 STARLINK-3920,1 52575U 22051AR  22361.27660809  .00000086  00000-0  23529-4 0  9995,2 52575  53.2197 324.3255 0002693  25.5503 334.5622 15.08851712 35198,6917.845,95.437,541.573,537.847,0.0
52575.0,STARLINK-3920,PAYLOAD,2022-12-27 14:35:13,15.08855409,0.0002668,53.2199,322.8388,27.3203,332.7929,0.00027119,4.032e-05,0.0,0 STARLINK-3920,1 52575U 22051AR  22361.60780084  .00004032  00000-0  27119-3 0  9993,2 52575  53.2199 322.8388 0002668  27.3203 332.7929 15.08855409 35242,6917.833000000001,95.437,541.544,537.8530000000002,0.0
